{
    "links": {
        "self": "http://www.neowsapp.com/rest/v1/neo/3399548?api_key=iIulBulltgU6a56xZRHN4H3l9WmuAYTsLGpBGhQ2"
    },
    "id": "3399548",
    "neo_reference_id": "3399548",
    "name": "(2008 AU28)",
    "designation": "2008 AU28",
    "nasa_jpl_url": "http://ssd.jpl.nasa.gov/sbdb.cgi?sstr=3399548",
    "absolute_magnitude_h": 24.8,
    "estimated_diameter": {
        "kilometers": {
            "estimated_diameter_min": 0.0291443905,
            "estimated_diameter_max": 0.0651688382
        },
        "meters": {
            "estimated_diameter_min": 29.1443904535,
            "estimated_diameter_max": 65.1688382168
        },
        "miles": {
            "estimated_diameter_min": 0.018109479,
            "estimated_diameter_max": 0.0404940262
        },
        "feet": {
            "estimated_diameter_min": 95.6180819754,
            "estimated_diameter_max": 213.8085311752
        }
    },
    "is_potentially_hazardous_asteroid": false,
    "close_approach_data": [
        {
            "close_approach_date": "2008-01-19",
            "close_approach_date_full": "2008-Jan-19 02:57",
            "epoch_date_close_approach": 1200711420000,
            "relative_velocity": {
                "kilometers_per_second": "9.3393427571",
                "kilometers_per_hour": "33621.6339253956",
                "miles_per_hour": "20891.1758132549"
            },
            "miss_distance": {
                "astronomical": "0.0137407339",
                "lunar": "5.3451454871",
                "kilometers": "2055584.523676793",
                "miles": "1277280.9947060234"
            },
            "orbiting_body": "Earth"
        }
    ],
    "orbital_data": {
        "orbit_id": "10",
        "orbit_determination_date": "2017-04-06 09:04:46",
        "first_observation_date": "2008-01-11",
        "last_observation_date": "2008-01-19",
        "data_arc_in_days": 8,
        "observations_used": 49,
        "orbit_uncertainty": "8",
        "minimum_orbit_intersection": ".0102847",
        "jupiter_tisserand_invariant": "3.648",
        "epoch_osculation": "2454480.5",
        "eccentricity": ".5328611763869707",
        "semi_major_axis": "1.999630758484803",
        "inclination": "4.297018468999528",
        "ascending_node_longitude": "108.8237885732219",
        "orbital_period": "1032.816433677647",
        "perihelion_distance": ".9341051601790201",
        "perihelion_argument": "39.80722234642591",
        "aphelion_distance": "3.065156356790585",
        "perihelion_time": "2454508.142448016805",
        "mean_anomaly": "350.3649080692729",
        "mean_motion": ".348561456093523",
        "equinox": "J2000",
        "orbit_class": {
            "orbit_class_type": "APO",
            "orbit_class_description": "Near-Earth asteroid orbits which cross the Earth’s orbit similar to that of 1862 Apollo",
            "orbit_class_range": "a (semi-major axis) > 1.0 AU; q (perihelion) < 1.017 AU"
        }
    },
    "is_sentry_object": false
}